NORAD_CAT_ID,OBJECT_NAME,OBJECT_TYPE,EPOCH,MEAN_MOTION,ECCENTRICITY,INCLINATION,RA_OF_ASC_NODE,ARG_OF_PERICENTER,MEAN_ANOMALY,BSTAR,MEAN_MOTION_DOT,MEAN_MOTION_DDOT,TLE_LINE0,TLE_LINE1,TLE_LINE2,SEMIMAJOR_AXIS,PERIOD,APOGEE,PERIGEE,DECAYED
53033.0,STARLINK-4167,PAYLOAD,2024-07-04 15:20:42,15.08832464,0.0001459,53.2189,306.2191,108.0039,252.1112,6.3198e-05,7.18e-06,0.0,0 STARLINK-4167,1 53033U 22076AZ  24186.63937664  .00000718  00000-0  63198-4 0  9993,2 53033  53.2189 306.2191 0001459 108.0039 252.1112 15.08832464110575,6917.903,95.438,540.778,538.759,0.0
53033.0,STARLINK-4167,PAYLOAD,2024-07-05 00:52:59,15.08851821,0.0001197,53.2181,304.4279,73.2624,286.8499,8.5434e-05,1.073e-05,0.0,0 STARLINK-4167,1 53033U 22076AZ  24187.03680194  .00001073  00000-0  85434-4 0  9993,2 53033  53.2181 304.4279 0001197  73.2624 286.8499 15.08851821111106,6917.844,95.437,540.537,538.881,0.0
53033.0,STARLINK-4167,PAYLOAD,2024-07-05 07:14:33,15.08827394,0.0001565,53.2172,303.2387,75.0838,285.0327,0.00025889,3.833e-05,0.0,0 STARLINK-4167,1 53033U 22076AZ  24187.30177433  .00003833  00000-0  25889-3 0  9993,2 53033  53.2172 303.2387 0001565  75.0838 285.0327 15.08827394111142,6917.919,95.438,540.867,538.701,0.0
53033.0,STARLINK-4167,PAYLOAD,2024-07-05 13:36:05,15.08835522,0.0001473,53.2199,302.054,87.5614,272.5547,0.00013491,1.86e-05,0.0,0 STARLINK-4167,1 53033U 22076AZ  24187.56673353  .00001860  00000-0  13491-3 0  9997,2 53033  53.2199 302.0540 0001473  87.5614 272.5547 15.08835522110716,6917.894,95.438,540.778,538.74,0.0
53033.0,STARLINK-4167,PAYLOAD,2024-07-05 15:11:28,15.08838526,0.0001245,53.2184,301.7569,97.191,262.9224,0.00015122,2.12e-05,0.0,0 STARLINK-4167,1 53033U 22076AZ  24187.63297168  .00002120  00000-0  15122-3 0  9994,2 53033  53.2184 301.7569 0001245  97.1910 262.9224 15.08838526110723,6917.885,95.438,540.611,538.889,0.0
53033.0,STARLINK-4167,PAYLOAD,2024-07-06 00:43:46,15.08852906,0.000134,53.2194,299.9712,82.3907,277.7237,0.0001562,2.2e-05,0.0,0 STARLINK-4167,1 53033U 22076AZ  24188.03040113  .00002200  00000-0  15620-3 0  9997,2 53033  53.2194 299.9712 0001340  82.3907 277.7237 15.08852906111255,6917.841,95.437,540.633,538.779,0.0
53033.0,STARLINK-4167,PAYLOAD,2024-07-06 13:26:53,15.08825278,0.0001186,53.2164,297.5939,95.422,264.6907,2.6446e-05,1.33e-06,0.0,0 STARLINK-4167,1 53033U 22076AZ  24188.56034270  .00000133  00000-0  26446-4 0  9994,2 53033  53.2164 297.5939 0001186  95.4220 264.6907 15.08825278111338,6917.925,95.438,540.611,538.97,0.0
53033.0,STARLINK-4167,PAYLOAD,2024-07-06 15:02:16,15.08834115,0.0001266,53.2164,297.2949,90.0499,270.0638,2.3539e-05,8.7e-07,0.0,0 STARLINK-4167,1 53033U 22076AZ  24188.62657766  .00000087  00000-0  23539-4 0  9990,2 53033  53.2164 297.2949 0001266  90.0499 270.0638 15.08834115111347,6917.898,95.438,540.639,538.888,0.0
53033.0,STARLINK-4167,PAYLOAD,2024-07-07 00:34:34,15.08848292,0.0001326,53.217,295.5099,84.2938,275.8205,3.1583e-05,2.15e-06,0.0,0 STARLINK-4167,1 53033U 22076AZ  24189.02400800  .00000215  00000-0  31583-4 0  9991,2 53033  53.2170 295.5099 0001326  84.2938 275.8205 15.08848292111402,6917.855,95.437,540.637,538.803,0.0
53033.0,STARLINK-4167,PAYLOAD,2024-07-07 06:56:07,15.08837521,0.0001311,53.2167,294.3231,83.653,276.4611,5.5661e-05,5.98e-06,0.0,0 STARLINK-4167,1 53033U 22076AZ  24189.28897462  .00000598  00000-0  55661-4 0  9990,2 53033  53.2167 294.3231 0001311  83.6530 276.4611 15.08837521111443,6917.888,95.438,540.66,538.846,0.0
53033.0,STARLINK-4167,PAYLOAD,2024-07-08 13:08:26,15.0883534,0.000122,53.2152,288.67,95.3072,264.8059,0.00016525,2.343e-05,0.0,0 STARLINK-4167,1 53033U 22076AZ  24190.54753298  .00002343  00000-0  16525-3 0  9994,2 53033  53.2152 288.6700 0001220  95.3072 264.8059 15.08835340111639,6917.895,95.438,540.604,538.916,0.0
53033.0,STARLINK-4167,PAYLOAD,2024-07-09 12:59:13,15.08842463,0.0001323,53.2168,284.2084,104.3609,255.753,7.4907e-05,9.05e-06,0.0,0 STARLINK-4167,1 53033U 22076AZ  24191.54113075  .00000905  00000-0  74907-4 0  9999,2 53033  53.2168 284.2084 0001323 104.3609 255.7530 15.08842463111316,6917.873,95.437,540.653,538.823,0.0
53033.0,STARLINK-4167,PAYLOAD,2024-07-10 12:50:01,15.0883512,0.0001301,53.2166,279.75,99.8938,260.2201,2.8972e-05,1.73e-06,0.0,0 STARLINK-4167,1 53033U 22076AZ  24192.53473735  .00000173  00000-0  28972-4 0  9999,2 53033  53.2166 279.7500 0001301  99.8938 260.2201 15.08835120111931,6917.895,95.438,540.66,538.86,0.0
53033.0,STARLINK-4167,PAYLOAD,2024-07-11 11:05:24,15.08839002,0.0001357,53.2169,275.5863,95.6872,264.4275,7.25e-05,8.66e-06,0.0,0 STARLINK-4167,1 53033U 22076AZ  24193.46209487  .00000866  00000-0  72500-4 0  9998,2 53033  53.2169 275.5863 0001357  95.6872 264.4275 15.08839002111606,6917.883,95.438,540.687,538.81,0.0
53033.0,STARLINK-4167,PAYLOAD,2024-07-12 04:34:39,15.08838583,0.0001273,53.2165,272.3144,90.9069,269.2069,9.8306e-05,1.277e-05,0.0,0 STARLINK-4167,1 53033U 22076AZ  24194.19073575  .00001277  00000-0  98306-4 0  9995,2 53033  53.2165 272.3144 0001273  90.9069 269.2069 15.08838583112183,6917.885,95.438,540.63,538.869,0.0
53033.0,STARLINK-4167,PAYLOAD,2024-07-12 12:31:35,15.08834019,0.0001254,53.216,270.8252,81.0181,279.0953,4.249e-05,3.88e-06,0.0,0 STARLINK-4167,1 53033U 22076AZ  24194.52194182  .00000388  00000-0  42490-4 0  9995,2 53033  53.2160 270.8252 0001254  81.0181 279.0953 15.08834019112233,6917.899,95.438,540.631,538.896,0.0
53033.0,STARLINK-4167,PAYLOAD,2024-07-12 14:06:58,15.08835403,0.0001333,53.2166,270.5284,85.0667,275.0478,4.9954e-05,5.07e-06,0.0,0 STARLINK-4167,1 53033U 22076AZ  24194.58818090  .00000507  00000-0  49954-4 0  9997,2 53033  53.2166 270.5284 0001333  85.0667 275.0478 15.08835403111776,6917.894,95.438,540.682,538.837,0.0
53033.0,STARLINK-4167,PAYLOAD,2024-07-13 12:22:27,15.08774341,0.0002345,53.216,266.3645,60.423,299.6996,-0.00051213,-8.415e-05,0.0,0 STARLINK-4167,1 53033U 22076AZ  24195.51559671 -.00008415  00000-0 -51213-3 0  9996,2 53033  53.2160 266.3645 0002345  60.4230 299.6996 15.08774341112389,6918.081,95.442,541.568,538.324,0.0
53033.0,STARLINK-4167,PAYLOAD,2024-07-13 20:19:17,15.08852785,0.0001375,53.2165,264.8776,90.7633,269.3516,0.00015925,2.248e-05,0.0,0 STARLINK-4167,1 53033U 22076AZ  24195.84672681  .00002248  00000-0  15925-3 0  9995,2 53033  53.2165 264.8776 0001375  90.7633 269.3516 15.08852785112434,6917.841,95.437,540.658,538.755,0.0
53033.0,STARLINK-4167,PAYLOAD,2024-07-13 21:54:42,15.08826962,0.0001474,53.2162,264.5805,95.0684,265.0477,-5.5814e-05,-1.176e-05,0.0,0 STARLINK-4167,1 53033U 22076AZ  24195.91298821 -.00001176  00000-0 -55814-4 0  9996,2 53033  53.2162 264.5805 0001474  95.0684 265.0477 15.08826962111970,6917.92,95.438,540.805,538.766,0.0
53033.0,STARLINK-4167,PAYLOAD,2024-07-14 12:13:09,15.08840004,0.0001357,53.2162,261.9062,90.6954,269.4193,0.00013351,1.838e-05,0.0,0 STARLINK-4167,1 53033U 22076AZ  24196.50913749  .00001838  00000-0  13351-3 0  9997,2 53033  53.2162 261.9062 0001357  90.6954 269.4193 15.08840004112536,6917.88,95.438,540.684,538.807,0.0
53033.0,STARLINK-4167,PAYLOAD,2024-07-14 21:45:27,15.08852165,0.0001406,53.216,260.1234,87.6875,272.4278,0.00019236,2.776e-05,0.0,0 STARLINK-4167,1 53033U 22076AZ  24196.90656850  .00002776  00000-0  19236-3 0  9998,2 53033  53.2160 260.1234 0001406  87.6875 272.4278 15.08852165112594,6917.843,95.437,540.681,538.736,0.0
53033.0,STARLINK-4167,PAYLOAD,2024-07-15 10:28:33,15.08838918,0.0001726,53.2169,257.7401,101.8519,258.2667,4.5519e-05,4.36e-06,0.0,0 STARLINK-4167,1 53033U 22076AZ  24197.43649706  .00000436  00000-0  45519-4 0  9994,2 53033  53.2169 257.7401 0001726 101.8519 258.2667 15.08838918112673,6917.884,95.438,540.943,538.555,0.0
53033.0,STARLINK-4167,PAYLOAD,2024-07-15 13:39:19,15.08844255,0.0001573,53.217,257.1456,98.9918,261.1252,4.6733e-05,4.56e-06,0.0,0 STARLINK-4167,1 53033U 22076AZ  24197.56897697  .00000456  00000-0  46733-4 0  9993,2 53033  53.2170 257.1456 0001573  98.9918 261.1252 15.08844255112223,6917.867,95.437,540.821,538.644,0.0
53033.0,STARLINK-4167,PAYLOAD,2024-07-15 21:36:14,15.08847546,0.0001578,53.2172,255.6598,97.0566,263.0606,6.4575e-05,7.4e-06,0.0,0 STARLINK-4167,1 53033U 22076AZ  24197.90017292  .00000740  00000-0  64575-4 0  9996,2 53033  53.2172 255.6598 0001578  97.0566 263.0606 15.08847546112274,6917.857,95.437,540.814,538.631,0.0
53033.0,STARLINK-4167,PAYLOAD,2024-07-16 10:19:20,15.0883884,0.0001754,53.2178,253.2813,101.2434,258.8755,1.9524e-05,2.3e-07,0.0,0 STARLINK-4167,1 53033U 22076AZ  24198.43009873  .00000023  00000-0  19524-4 0  9999,2 53033  53.2178 253.2813 0001754 101.2434 258.8755 15.08838840112355,6917.884,95.438,540.962,538.536,0.0
53033.0,STARLINK-4167,PAYLOAD,2024-07-17 03:48:35,15.08821811,0.000181,53.2176,250.0112,95.9693,264.1506,0.00028657,4.273e-05,0.0,0 STARLINK-4167,1 53033U 22076AZ  24199.15874389  .00004273  00000-0  28657-3 0  9998,2 53033  53.2176 250.0112 0001810  95.9693 264.1506 15.08821811112937,6917.936,95.439,541.053,538.549,0.0
53033.0,STARLINK-4167,PAYLOAD,2024-07-17 10:10:08,15.0883149,0.0001642,53.2167,248.8203,94.8708,265.2471,3.3766e-05,2.49e-06,0.0,0 STARLINK-4167,1 53033U 22076AZ  24199.42370430  .00000249  00000-0  33766-4 0  9993,2 53033  53.2167 248.8203 0001642  94.8708 265.2471 15.08831490112501,6917.906,95.438,540.907,538.635,0.0
53033.0,STARLINK-4167,PAYLOAD,2024-07-18 10:00:55,15.08836452,0.0001483,53.216,244.3622,95.9353,264.1808,0.00011354,1.519e-05,0.0,0 STARLINK-4167,1 53033U 22076AZ  24200.41730473  .00001519  00000-0  11354-3 0  9991,2 53033  53.2160 244.3622 0001483  95.9353 264.1808 15.08836452113125,6917.891,95.438,540.782,538.73,0.0
53033.0,STARLINK-4167,PAYLOAD,2024-07-19 09:51:42,15.08840532,0.0001444,53.215,239.9026,95.6642,264.4514,0.00018819,2.708e-05,0.0,0 STARLINK-4167,1 53033U 22076AZ  24201.41090506  .00002708  00000-0  18819-3 0  9992,2 53033  53.2150 239.9026 0001444  95.6642 264.4514 15.08840532112802,6917.879,95.438,540.743,538.745,0.0
